[Satellite]
VERSION=1.1
NAME=IRIDIUM 33 [-]
NICKNAME=IRIDIUM 33 [-]
TLE1=1 24946U 97051C   15055.60025333  .00000267  00000-0  89880-4 0  9997
TLE2=2 24946  86.3849 279.7417 0009997 110.1155 303.9068 14.33315442913192
